OBJECT_NAME,OBJECT_ID,EPOCH,MEAN_MOTION,ECCENTRICITY,INCLINATION,RA_OF_ASC_NODE,ARG_OF_PERICENTER,MEAN_ANOMALY,EPHEMERIS_TYPE,CLASSIFICATION_TYPE,NORAD_CAT_ID,ELEMENT_SET_NO,REV_AT_EPOCH,BSTAR,MEAN_MOTION_DOT,MEAN_MOTION_DDOT
INTELSAT 35E (IS-35E),2017-041A,2026-06-20T06:05:02.613408,1.00273121,.00021192,0.0184,31.7498,57.9673,235.5091,0,U,42818,999,3284,0,-.243E-5,0
COSMOS 2520,2017-046A,2026-06-20T06:11:56.849568,1.00272047,.00008678,0.0458,95.4065,28.4578,282.5989,0,U,42907,999,3242,0,.132E-5,0
TDRS 13,2017-047A,2026-06-20T05:55:50.893248,1.00271913,.00146441,3.4525,2.8317,106.4458,236.7065,0,U,42915,999,3237,0,-.106E-5,0
QZS-3 (MICHIBIKI-3),2017-048A,2026-06-20T06:35:26.267712,1.00274737,.00019824,0.0562,161.6436,282.4433,50.2662,0,U,42917,999,3229,0,-.352E-5,0
AMAZONAS 5,2017-053A,2026-06-20T02:59:57.866784,1.00272263,.00019717,0.0322,325.1798,73.4746,213.6749,0,U,42934,999,3207,0,-.288E-5,0
ASIASAT 9,2017-057A,2026-06-19T18:35:18.438144,1.00269249,.00025444,0.0136,103.3432,331.7850,233.7914,0,U,42942,999,3188,0,-.365E-5,0
INTELSAT 37E (IS-37E),2017-059A,2026-06-20T05:53:58.573248,1.00271121,.00026165,0.0178,18.6343,94.2328,226.0924,0,U,42950,999,3209,0,-.146E-5,0
BSAT-4A,2017-059B,2026-06-19T23:57:40.806144,1.00270250,.00040565,0.0337,353.9231,76.8596,306.6773,0,U,42951,999,3182,0,-.355E-5,0
QZS-4 (MICHIBIKI-4),2017-062A,2026-06-18T08:24:11.162016,1.00250086,.0745019,40.1070,343.4662,271.8091,274.2172,0,U,42965,999,3181,0,-.36E-5,0
SES-11 (ECHOSTAR 105),2017-063A,2026-06-20T04:40:57.599040,1.00271074,.00028066,0.0150,3.4880,71.2598,158.9435,0,U,42967,999,3175,0,-.94E-6,0
KOREASAT 5A,2017-067A,2026-06-20T06:31:19.162848,1.00273360,.00006452,0.0155,312.7125,107.0831,59.6647,0,U,42984,999,3156,0,-.363E-5,0
ALCOMSAT 1,2017-078A,2026-06-20T04:09:27.097920,1.00272455,.00023124,0.0236,268.9941,172.8017,224.1398,0,U,43039,999,3132,0,-.191E-5,0
SBIRS GEO-3 (USA 282),2018-009A,2026-06-20T05:13:43.058208,1.00271739,.00019733,2.1867,12.2784,68.0161,107.1593,0,U,43162,999,3087,0,.122E-5,0
AL YAH 3,2018-012A,2026-06-20T05:53:28.620096,1.00272236,.00038731,1.5608,83.0741,3.8613,249.7665,0,U,43174,999,3087,0,-.161E-5,0
SES-14,2018-012B,2026-06-20T04:02:50.231616,1.00279470,.00012355,0.0176,27.7377,43.1327,210.7211,0,U,43175,999,705,0,-.283E-5,0
GOES 17,2018-022A,2026-06-20T03:07:04.492704,1.00269494,.00005787,0.9457,85.6586,27.7610,112.1610,0,U,43226,999,3045,0,-.187E-5,0
HISPASAT 30W-6,2018-023A,2026-06-20T01:33:19.881216,1.00271051,.00057602,0.0445,43.1237,29.8638,188.6152,0,U,43228,999,3043,0,-.221E-5,0
SUPERBIRD-B3,2018-033A,2026-06-20T04:24:38.851200,1.00270559,.00011597,0.0269,290.3251,169.0509,37.1877,0,U,43271,999,3009,0,-.97E-6,0
HYLAS 4,2018-033B,2026-06-20T00:41:34.846656,1.00271055,.00011232,0.0189,20.7021,65.0638,159.3513,0,U,43272,999,3009,0,-.239E-5,0
IRNSS-1I,2018-035A,2026-06-15T20:09:20.172384,1.00272046,.00178117,28.7520,74.2167,181.5598,5.5147,0,U,43286,999,3006,0,.62E-6,0
USA 283,2018-036A,2026-06-19T12:54:38.708064,1.00268506,.0000086,0.0091,53.6723,77.7836,104.0737,0,U,43339,999,2531,0,0,0
COSMOS 2526,2018-037A,2026-06-20T01:27:20.783808,1.00272755,.00004014,0.0263,46.0823,148.6835,223.4101,0,U,43432,999,2998,0,-.35E-5,0
APSTAR-6C,2018-041A,2026-06-19T21:59:04.403616,1.00273385,.000104,0.0298,323.2572,26.6457,21.9948,0,U,43450,999,2983,0,-.323E-5,0
BANGABANDHUSAT-1,2018-044A,2026-06-20T06:33:11.482848,1.00273459,.0001858,0.0359,91.6313,7.1985,27.0445,0,U,43463,999,2974,0,-.367E-5,0
SES-12,2018-049A,2026-06-20T00:37:43.761216,1.00268663,.00007287,0.0142,15.9791,263.0914,93.5979,0,U,43488,999,2944,0,-.274E-5,0
FENGYUN 2H,2018-050A,2026-06-20T01:13:52.076352,1.00269328,.00018941,3.0397,79.0417,138.0026,149.0721,0,U,43491,999,2946,0,-.135E-5,0
BEIDOU-2 IGSO-7,2018-057A,2026-06-19T21:56:32.362080,1.00250534,.01050884,55.1954,163.0329,238.0240,305.9372,0,U,43539,999,2915,0,-.31E-6,0
TELSTAR 19V,2018-059A,2026-06-20T05:41:07.304640,1.00269978,.00026235,0.0150,115.7037,358.7077,176.3068,0,U,43562,999,2917,0,-.285E-5,0
TELKOM 4 (MERAH PUTIH),2018-064A,2026-06-20T01:21:58.797792,1.00269772,.00014835,0.0164,10.4994,104.0882,282.1841,0,U,43587,999,2890,0,0,0
TELSTAR 18V,2018-069A,2026-06-20T06:38:33.468864,1.00271609,.00018174,0.0158,299.0001,141.1630,65.9528,0,U,43611,999,2867,0,-.299E-5,0
AZERSPACE 2 (IS-38),2018-074A,2026-06-20T04:29:25.184256,1.00271425,.0001411,0.0176,12.5072,75.0400,293.3134,0,U,43632,999,2847,0,.132E-5,0
